CTC2_L_00673001-01
1 10000U 23922UN  26075.70050926  .00000000  00000+0  00000-0 0  9997
2 10000  70.0000   0.0000 0000000   0.0000   0.0000  1.97017143    14
CTC2_L_00673001-02
1 10001U 23230OH  26075.70050926  .00000000  00000+0  00000-0 0  9990
2 10001  70.0000   0.0000 0000000   0.0000  36.0000  1.97017143    14
CTC2_L_00673001-03
1 10002U 24495CZ  26075.70050926  .00000000  00000+0  00000-0 0  9995
2 10002  70.0000   0.0000 0000000   0.0000  72.0000  1.97017143    15
CTC2_L_00673001-04
1 10003U 23920RC  26075.70050926  .00000000  00000+0  00000-0 0  9998
2 10003  70.0000   0.0000 0000000   0.0000 108.0000  1.97017143    16
CTC2_L_00673001-05
1 10004U 23522CV  26075.70050926  .00000000  00000+0  00000-0 0  9997
2 10004  70.0000   0.0000 0000000   0.0000 144.0000  1.97017143    17
CTC2_L_00673001-06
1 10005U 22764UC  26075.70050926  .00000000  00000+0  00000-0 0  9995
2 10005  70.0000   0.0000 0000000   0.0000 180.0000  1.97017143    18
CTC2_L_00673001-07
1 10006U 22458PV  26075.70050926  .00000000  00000+0  00000-0 0  9996
2 10006  70.0000   0.0000 0000000   0.0000 216.0000  1.97017143    19
CTC2_L_00673001-08
1 10007U 22384BG  26075.70050926  .00000000  00000+0  00000-0 0  9995
2 10007  70.0000   0.0000 0000000   0.0000 252.0000  1.97017143    10
CTC2_L_00673001-09
1 10008U 24078KK  26075.70050926  .00000000  00000+0  00000-0 0  9998
2 10008  70.0000   0.0000 0000000   0.0000 288.0000  1.97017143    10
CTC2_L_00673001-10
1 10009U 26050YJ  26075.70050926  .00000000  00000+0  00000-0 0  9991
2 10009  70.0000   0.0000 0000000   0.0000 324.0000  1.97017143    12
CTC2_L_00673002-01
1 10010U 26102FA  26075.70050926  .00000000  00000+0  00000-0 0  9991
2 10010  70.0000  30.0000 0000000   0.0000  12.0000  1.97017143    11
CTC2_L_00673002-02
1 10011U 25573NP  26075.70050926  .00000000  00000+0  00000-0 0  9993
2 10011  70.0000  30.0000 0000000   0.0000  48.0000  1.97017143    11
CTC2_L_00673002-03
1 10012U 25491FN  26075.70050926  .00000000  00000+0  00000-0 0  9993
2 10012  70.0000  30.0000 0000000   0.0000  84.0000  1.97017143    12
CTC2_L_00673002-04
1 10013U 26516HH  26075.70050926  .00000000  00000+0  00000-0 0  9993
2 10013  70.0000  30.0000 0000000   0.0000 120.0000  1.97017143    14
CTC2_L_00673002-05
1 10014U 24998PR  26075.70050926  .00000000  00000+0  00000-0 0  9996
2 10014  70.0000  30.0000 0000000   0.0000 156.0000  1.97017143    14
CTC2_L_00673002-06
1 10015U 22310IM  26075.70050926  .00000000  00000+0  00000-0 0  9993
2 10015  70.0000  30.0000 0000000   0.0000 192.0000  1.97017143    15
CTC2_L_00673002-07
1 10016U 26652RR  26075.70050926  .00000000  00000+0  00000-0 0  9997
2 10016  70.0000  30.0000 0000000   0.0000 228.0000  1.97017143    16
CTC2_L_00673002-08
1 10017U 26261OM  26075.70050926  .00000000  00000+0  00000-0 0  9994
2 10017  70.0000  30.0000 0000000   0.0000 264.0000  1.97017143    17
CTC2_L_00673002-09
1 10018U 25128JU  26075.70050926  .00000000  00000+0  00000-0 0  9996
2 10018  70.0000  30.0000 0000000   0.0000 300.0000  1.97017143    19
CTC2_L_00673002-10
1 10019U 22705VC  26075.70050926  .00000000  00000+0  00000-0 0  9995
2 10019  70.0000  30.0000 0000000   0.0000 336.0000  1.97017143    19
CTC2_L_00673003-01
1 10020U 24992BF  26075.70050926  .00000000  00000+0  00000-0 0  9997
2 10020  70.0000  60.0000 0000000   0.0000  24.0000  1.97017143    18
CTC2_L_00673003-02
1 10021U 22068LI  26075.70050926  .00000000  00000+0  00000-0 0  9990
2 10021  70.0000  60.0000 0000000   0.0000  60.0000  1.97017143    19
CTC2_L_00673003-03
1 10022U 23375SC  26075.70050926  .00000000  00000+0  00000-0 0  9993
2 10022  70.0000  60.0000 0000000   0.0000  96.0000  1.97017143    19
CTC2_L_00673003-04
1 10023U 23685PH  26075.70050926  .00000000  00000+0  00000-0 0  9998
2 10023  70.0000  60.0000 0000000   0.0000 132.0000  1.97017143    11
CTC2_L_00673003-05
1 10024U 23009UF  26075.70050926  .00000000  00000+0  00000-0 0  9999
2 10024  70.0000  60.0000 0000000   0.0000 168.0000  1.97017143    11
CTC2_L_00673003-06
1 10025U 24501TF  26075.70050926  .00000000  00000+0  00000-0 0  9998
2 10025  70.0000  60.0000 0000000   0.0000 204.0000  1.97017143    13
CTC2_L_00673003-07
1 10026U 23189VN  26075.70050926  .00000000  00000+0  00000-0 0  9990
2 10026  70.0000  60.0000 0000000   0.0000 240.0000  1.97017143    14
CTC2_L_00673003-08
1 10027U 26720MH  26075.70050926  .00000000  00000+0  00000-0 0  9995
2 10027  70.0000  60.0000 0000000   0.0000 276.0000  1.97017143    14
CTC2_L_00673003-09
1 10028U 24963XK  26075.70050926  .00000000  00000+0  00000-0 0  9993
2 10028  70.0000  60.0000 0000000   0.0000 312.0000  1.97017143    16
CTC2_L_00673003-10
1 10029U 23626QL  26075.70050926  .00000000  00000+0  00000-0 0  9999
2 10029  70.0000  60.0000 0000000   0.0000 348.0000  1.97017143    16
CTC2_L_00673004-01
1 10030U 24959YD  26075.70050926  .00000000  00000+0  00000-0 0  9991
2 10030  70.0000  90.0000 0000000   0.0000  36.0000  1.97017143    15
CTC2_L_00673004-02
1 10031U 26527EW  26075.70050926  .00000000  00000+0  00000-0 0  9995
2 10031  70.0000  90.0000 0000000   0.0000  72.0000  1.97017143    16
CTC2_L_00673004-03
1 10032U 26168GN  26075.70050926  .00000000  00000+0  00000-0 0  9997
2 10032  70.0000  90.0000 0000000   0.0000 108.0000  1.97017143    17
CTC2_L_00673004-04
1 10033U 22224QD  26075.70050926  .00000000  00000+0  00000-0 0  9997
2 10033  70.0000  90.0000 0000000   0.0000 144.0000  1.97017143    18
CTC2_L_00673004-05
1 10034U 25889PO  26075.70050926  .00000000  00000+0  00000-0 0  9998
2 10034  70.0000  90.0000 0000000   0.0000 180.0000  1.97017143    19
CTC2_L_00673004-06
1 10035U 26623OZ  26075.70050926  .00000000  00000+0  00000-0 0  9996
2 10035  70.0000  90.0000 0000000   0.0000 216.0000  1.97017143    10
CTC2_L_00673004-07
1 10036U 23048RM  26075.70050926  .00000000  00000+0  00000-0 0  9995
2 10036  70.0000  90.0000 0000000   0.0000 252.0000  1.97017143    11
CTC2_L_00673004-08
1 10037U 26183UE  26075.70050926  .00000000  00000+0  00000-0 0  9999
2 10037  70.0000  90.0000 0000000   0.0000 288.0000  1.97017143    11
CTC2_L_00673004-09
1 10038U 24901UT  26075.70050926  .00000000  00000+0  00000-0 0  9996
2 10038  70.0000  90.0000 0000000   0.0000 324.0000  1.97017143    13
CTC2_L_00673004-10
1 10039U 23374GL  26075.70050926  .00000000  00000+0  00000-0 0  9990
2 10039  70.0000  90.0000 0000000   0.0000   0.0000  1.97017143    15
CTC2_L_00673005-01
1 10040U 24385OO  26075.70050926  .00000000  00000+0  00000-0 0  9995
2 10040  70.0000 120.0000 0000000   0.0000  48.0000  1.97017143    13
CTC2_L_00673005-02
1 10041U 26220UW  26075.70050926  .00000000  00000+0  00000-0 0  9996
2 10041  70.0000 120.0000 0000000   0.0000  84.0000  1.97017143    14
CTC2_L_00673005-03
1 10042U 26759CY  26075.70050926  .00000000  00000+0  00000-0 0  9994
2 10042  70.0000 120.0000 0000000   0.0000 120.0000  1.97017143    16
CTC2_L_00673005-04
1 10043U 25018NS  26075.70050926  .00000000  00000+0  00000-0 0  9992
2 10043  70.0000 120.0000 0000000   0.0000 156.0000  1.97017143    16
CTC2_L_00673005-05
1 10044U 24223Y   26075.70050926  .00000000  00000+0  00000-0 0  9990
2 10044  70.0000 120.0000 0000000   0.0000 192.0000  1.97017143    17
CTC2_L_00673005-06
1 10045U 25837NI  26075.70050926  .00000000  00000+0  00000-0 0  9993
2 10045  70.0000 120.0000 0000000   0.0000 228.0000  1.97017143    18
CTC2_L_00673005-07
1 10046U 24501ZF  26075.70050926  .00000000  00000+0  00000-0 0  9991
2 10046  70.0000 120.0000 0000000   0.0000 264.0000  1.97017143    19
CTC2_L_00673005-08
1 10047U 23104LK  26075.70050926  .00000000  00000+0  00000-0 0  9990
2 10047  70.0000 120.0000 0000000   0.0000 300.0000  1.97017143    11
CTC2_L_00673005-09
1 10048U 25376GT  26075.70050926  .00000000  00000+0  00000-0 0  9994
2 10048  70.0000 120.0000 0000000   0.0000 336.0000  1.97017143    11
CTC2_L_00673005-10
1 10049U 24667FM  26075.70050926  .00000000  00000+0  00000-0 0  9997
2 10049  70.0000 120.0000 0000000   0.0000  12.0000  1.97017143    13
CTC2_L_00673006-01
1 10050U 25266I   26075.70050926  .00000000  00000+0  00000-0 0  9995
2 10050  70.0000 150.0000 0000000   0.0000  60.0000  1.97017143    11
CTC2_L_00673006-02
1 10051U 23946TH  26075.70050926  .00000000  00000+0  00000-0 0  9999
2 10051  70.0000 150.0000 0000000   0.0000  96.0000  1.97017143    11
CTC2_L_00673006-03
1 10052U 26292WI  26075.70050926  .00000000  00000+0  00000-0 0  9997
2 10052  70.0000 150.0000 0000000   0.0000 132.0000  1.97017143    13
CTC2_L_00673006-04
1 10053U 23233OX  26075.70050926  .00000000  00000+0  00000-0 0  9990
2 10053  70.0000 150.0000 0000000   0.0000 168.0000  1.97017143    13
CTC2_L_00673006-05
1 10054U 24251ZX  26075.70050926  .00000000  00000+0  00000-0 0  9992
2 10054  70.0000 150.0000 0000000   0.0000 204.0000  1.97017143    15
CTC2_L_00673006-06
1 10055U 23430OW  26075.70050926  .00000000  00000+0  00000-0 0  9991
2 10055  70.0000 150.0000 0000000   0.0000 240.0000  1.97017143    16
CTC2_L_00673006-07
1 10056U 24690OE  26075.70050926  .00000000  00000+0  00000-0 0  9991
2 10056  70.0000 150.0000 0000000   0.0000 276.0000  1.97017143    16
CTC2_L_00673006-08
1 10057U 23241TP  26075.70050926  .00000000  00000+0  00000-0 0  9993
2 10057  70.0000 150.0000 0000000   0.0000 312.0000  1.97017143    18
CTC2_L_00673006-09
1 10058U 24651KN  26075.70050926  .00000000  00000+0  00000-0 0  9990
2 10058  70.0000 150.0000 0000000   0.0000 348.0000  1.97017143    18
CTC2_L_00673006-10
1 10059U 25482HQ  26075.70050926  .00000000  00000+0  00000-0 0  9994
2 10059  70.0000 150.0000 0000000   0.0000  24.0000  1.97017143    10
CTC2_L_00673007-01
1 10060U 22709ZB  26075.70050926  .00000000  00000+0  00000-0 0  9995
2 10060  70.0000 180.0000 0000000   0.0000  72.0000  1.97017143    18
CTC2_L_00673007-02
1 10061U 24935PV  26075.70050926  .00000000  00000+0  00000-0 0  9999
2 10061  70.0000 180.0000 0000000   0.0000 108.0000  1.97017143    19
